{
    "links": {
        "self": "http://www.neowsapp.com/rest/v1/neo/3781872?api_key=iIulBulltgU6a56xZRHN4H3l9WmuAYTsLGpBGhQ2"
    },
    "id": "3781872",
    "neo_reference_id": "3781872",
    "name": "(2017 SH14)",
    "designation": "2017 SH14",
    "nasa_jpl_url": "http://ssd.jpl.nasa.gov/sbdb.cgi?sstr=3781872",
    "absolute_magnitude_h": 24.4,
    "estimated_diameter": {
        "kilometers": {
            "estimated_diameter_min": 0.0350392641,
            "estimated_diameter_max": 0.0783501764
        },
        "meters": {
            "estimated_diameter_min": 35.0392641108,
            "estimated_diameter_max": 78.3501764334
        },
        "miles": {
            "estimated_diameter_min": 0.0217723826,
            "estimated_diameter_max": 0.0486845275
        },
        "feet": {
            "estimated_diameter_min": 114.9582192654,
            "estimated_diameter_max": 257.0543928497
        }
    },
    "is_potentially_hazardous_asteroid": false,
    "close_approach_data": [
        {
            "close_approach_date": "2017-10-20",
            "close_approach_date_full": "2017-Oct-20 20:25",
            "epoch_date_close_approach": 1508531100000,
            "relative_velocity": {
                "kilometers_per_second": "6.864275851",
                "kilometers_per_hour": "24711.3930637133",
                "miles_per_hour": "15354.6986511723"
            },
            "miss_distance": {
                "astronomical": "0.039397587",
                "lunar": "15.325661343",
                "kilometers": "5893795.09833969",
                "miles": "3662234.454040122"
            },
            "orbiting_body": "Earth"
        }
    ],
    "orbital_data": {
        "orbit_id": "3",
        "orbit_determination_date": "2017-10-12 06:20:38",
        "first_observation_date": "2017-09-25",
        "last_observation_date": "2017-10-12",
        "data_arc_in_days": 17,
        "observations_used": 18,
        "orbit_uncertainty": "8",
        "minimum_orbit_intersection": ".00288379",
        "jupiter_tisserand_invariant": "4.082",
        "epoch_osculation": "2458022.5",
        "eccentricity": ".4399111078960796",
        "semi_major_axis": "1.70296494333067",
        "inclination": "2.38893643912846",
        "ascending_node_longitude": "258.6744601680954",
        "orbital_period": "811.7213866380483",
        "perihelion_distance": ".9538117484018904",
        "perihelion_argument": "149.4732388641043",
        "aphelion_distance": "2.452118138259449",
        "perihelion_time": "2458064.256136032085",
        "mean_anomaly": "341.4810731625412",
        "mean_motion": ".4435019280334993",
        "equinox": "J2000",
        "orbit_class": {
            "orbit_class_type": "APO",
            "orbit_class_description": "Near-Earth asteroid orbits which cross the Earth’s orbit similar to that of 1862 Apollo",
            "orbit_class_range": "a (semi-major axis) > 1.0 AU; q (perihelion) < 1.017 AU"
        }
    },
    "is_sentry_object": false
}